{
  "norad_id": 42957,
  "name": "IRIDIUM 122",
  "history": [
    {
      "epoch": "2026-04-13T04:17:06.704448Z",
      "apogee_km": 779.2484021783221,
      "perigee_km": 776.0783826044926,
      "latitude_deg": -4.285921395407985e-05,
      "longitude_deg": 146.70160621655913,
      "height_km": 780.6608385957145,
      "semi_major_axis_km": 7155.800392391407,
      "eccentricity": 0.0002215,
      "inclination_deg": 86.3969,
      "raan_deg": 52.3526,
      "arg_perigee_deg": 88.1984,
      "mean_anomaly_deg": 271.9465,
      "mean_motion_rev_day": 14.34218881
    },
    {
      "epoch": "2026-04-14T03:43:38.710560Z",
      "apogee_km": 779.2628731916047,
      "perigee_km": 776.0656611854238,
      "latitude_deg": -5.350509535854394e-05,
      "longitude_deg": 153.6972095415278,
      "height_km": 780.649428591439,
      "semi_major_axis_km": 7155.8012671885135,
      "eccentricity": 0.0002234,
      "inclination_deg": 86.3971,
      "raan_deg": 51.9443,
      "arg_perigee_deg": 87.7743,
      "mean_anomaly_deg": 272.3708,
      "mean_motion_rev_day": 14.34218618
    },
    {
      "epoch": "2026-04-15T19:54:50.762016Z",
      "apogee_km": 779.2926935525893,
      "perigee_km": 776.0410962627429,
      "latitude_deg": 6.5505068341949635e-06,
      "longitude_deg": -91.45320650409158,
      "height_km": 780.6593889389829,
      "semi_major_axis_km": 7155.803894907665,
      "eccentricity": 0.0002272,
      "inclination_deg": 86.3971,
      "raan_deg": 51.2445,
      "arg_perigee_deg": 88.0729,
      "mean_anomaly_deg": 272.0727,
      "mean_motion_rev_day": 14.34217828
    },
    {
      "epoch": "2026-04-16T14:19:58.757376Z",
      "apogee_km": 779.2896781898316,
      "perigee_km": 776.0438056125049,
      "latitude_deg": -4.732339886703765e-05,
      "longitude_deg": -8.813759243023705,
      "height_km": 780.6583456419328,
      "semi_major_axis_km": 7155.803741901168,
      "eccentricity": 0.0002268,
      "inclination_deg": 86.3973,
      "raan_deg": 50.9237,
      "arg_perigee_deg": 88.0374,
      "mean_anomaly_deg": 272.1081,
      "mean_motion_rev_day": 14.34217874
    },
    {
      "epoch": "2026-04-17T22:08:50.758080Z",
      "apogee_km": 779.296321303631,
      "perigee_km": 776.0378543541965,
      "latitude_deg": -5.2397168869537155e-05,
      "longitude_deg": -127.89110014544052,
      "height_km": 780.666400936233,
      "semi_major_axis_km": 7155.804087828913,
      "eccentricity": 0.00022768,
      "inclination_deg": 86.3974,
      "raan_deg": 50.3696,
      "arg_perigee_deg": 88.3167,
      "mean_anomaly_deg": 271.8289,
      "mean_motion_rev_day": 14.3421777
    },
    {
      "epoch": "2026-04-18T18:14:26.774304Z",
      "apogee_km": 779.2977189719431,
      "perigee_km": 776.0375343840287,
      "latitude_deg": -6.425630027743461e-05,
      "longitude_deg": -70.46637246794545,
      "height_km": 780.6632124891854,
      "semi_major_axis_km": 7155.804626677986,
      "eccentricity": 0.0002278,
      "inclination_deg": 86.3973,
      "raan_deg": 50.0196,
      "arg_perigee_deg": 88.1866,
      "mean_anomaly_deg": 271.959,
      "mean_motion_rev_day": 14.34217608
    },
    {
      "epoch": "2026-04-19T19:21:26.759808Z",
      "apogee_km": 779.2168683605096,
      "perigee_km": 776.1184049528365,
      "latitude_deg": 3.543922909999672e-05,
      "longitude_deg": -88.68491152225195,
      "height_km": 780.6571774167721,
      "semi_major_axis_km": 7155.804636656672,
      "eccentricity": 0.0002165,
      "inclination_deg": 86.3972,
      "raan_deg": 49.5825,
      "arg_perigee_deg": 87.8613,
      "mean_anomaly_deg": 272.2831,
      "mean_motion_rev_day": 14.34217605
    },
    {
      "epoch": "2026-04-20T13:46:34.769856Z",
      "apogee_km": 779.2912123196802,
      "perigee_km": 776.0433358757537,
      "latitude_deg": 3.7599280594487414e-05,
      "longitude_deg": -6.045725102353122,
      "height_km": 780.6577548544159,
      "semi_major_axis_km": 7155.804274097717,
      "eccentricity": 0.00022694,
      "inclination_deg": 86.3976,
      "raan_deg": 49.2615,
      "arg_perigee_deg": 87.9994,
      "mean_anomaly_deg": 272.1462,
      "mean_motion_rev_day": 14.34217714
    }
  ]
}